PHASE 3B (AO-10)        
1 14129U 83058B   21005.79784508  .00000411  00000-0  00000-0 0  9993
2 14129  25.7619 181.8418 6070844 298.7938  13.7724  2.05866333254578
UOSAT 2 (UO-11)         
1 14781U 84021B   21008.91778320  .00000121  00000-0  20834-4 0  9999
2 14781  97.5894  16.6538 0007110 241.3649 118.6851 14.83235335962286
LUSAT (LO-19)           
1 20442U 90005G   21008.93836864 -.00000013  00000-0  11939-4 0  9996
2 20442  98.7204 323.1470 0010675 270.7508  89.2452 14.32972892617980
EYESAT A (AO-27)        
1 22825U 93061C   21009.48969776  .00000002  00000-0  18805-4 0  9994
2 22825  98.9242  23.1419 0009194 132.9870 227.2084 14.30103088423538
ITAMSAT (IO-26)         
1 22826U 93061D   21009.07796402  .00000003  00000-0  19145-4 0  9993
2 22826  98.9183  22.6442 0009829 123.1017 237.1110 14.30440519423693
RADIO ROSTO (RS-15)     
1 23439U 94085A   21008.97212289 -.00000037  00000-0  15882-3 0  9996
2 23439  64.8163 273.8884 0155673   3.9046 356.3054 11.27569964 72353
JAS-2 (FO-29)           
1 24278U 96046B   21008.80503695 -.00000066  00000-0 -30575-4 0  9993
2 24278  98.5857  97.8190 0350069 203.0218 155.4901 13.53101696204657
TECHSAT 1B (GO-32)      
1 25397U 98043D   21009.43484888 -.00000021  00000-0  10134-4 0  9996
2 25397  98.7533 315.5854 0001584 140.7315 219.3978 14.23698918169087
ISS (ZARYA)             
1 25544U 98067A   21009.85938488  .00001675  00000-0  38168-4 0  9994
2 25544  51.6464  45.8515 0000514 205.2264 333.5747 15.49275141264055
PCSAT (NO-44)           
1 26931U 01043C   21008.92053552 -.00000047  00000-0  13736-4 0  9997
2 26931  67.0523 332.1529 0007440 272.3975  87.6274 14.30602025  6420
SAUDISAT 1C (SO-50)     
1 27607U 02058C   21008.98101148 -.00000006  00000-0  19372-4 0  9993
2 27607  64.5560 105.9744 0029395  93.0537 267.3930 14.75700677971185
CUTE-1 (CO-55)          
1 27844U 03031E   21008.99617561  .00000050  00000-0  42296-4 0  9999
2 27844  98.6815  19.6200 0009944 174.7155 185.4130 14.22280886909357
CUBESAT XI-IV (CO-57)   
1 27848U 03031J   21008.94213746  .00000044  00000-0  39927-4 0  9995
2 27848  98.6877  20.1347 0009588 187.6169 172.4864 14.21861890909146
MOZHAYETS 4 (RS-22)     
1 27939U 03042A   21009.38695455  .00000135  00000-0  32751-4 0  9997
2 27939  98.1155 147.8428 0014105  66.1827 294.0853 14.66931348924209
CUBESAT XI-V            
1 28895U 05043F   21008.89182239  .00000121  00000-0  32038-4 0  9991
2 28895  98.0354 145.8594 0016538 357.6747   2.4376 14.63851514810662
CUTE-1.7+APD II (CO-65) 
1 32785U 08021C   21008.82944979  .00000302  00000-0  38025-4 0  9996
2 32785  97.5936 354.0525 0013230 165.9395 194.2193 14.88607523688495
DELFI-C3 (DO-64)        
1 32789U 08021G   21008.70405994  .00001507  00000-0  10079-3 0  9992
2 32789  97.3958  50.1195 0011101 338.5583  21.5179 15.08372360692740
SEEDS II (CO-66)        
1 32791U 08021J   21009.00934165  .00000303  00000-0  35735-4 0  9996
2 32791  97.5565   0.2721 0014292 133.0873 227.1545 14.91241326689097
YUBILEINY (RS-30)       
1 32953U 08025A   21009.43441441  .00000028  00000-0  12906-3 0  9995
2 32953  82.5037 149.8316 0018721 325.2790  34.7066 12.43099437573225
KKS-1 (KISEKI)          
1 33499U 09002H   21008.91895645  .00000106  00000-0  23420-4 0  9999
2 33499  98.2897 235.1056 0008913 182.1966 177.9205 14.75604573642880
SWISSCUBE               
1 35932U 09051B   21009.11412520  .00000138  00000-0  42197-4 0  9994
2 35932  98.6066 204.0417 0007012 209.8860 150.1937 14.56474141599804
BEESAT-1                
1 35933U 09051C   21009.08646424  .00000110  00000-0  35813-4 0  9990
2 35933  98.6044 205.8704 0005000 222.1310 137.9503 14.56539742599915
ITUPSAT1                
1 35935U 09051E   21009.06479039  .00000108  00000-0  36010-4 0  9993
2 35935  98.6149 206.0162 0007318 224.6385 135.4223 14.55678237599618
XIWANG-1 (HOPE-1)       
1 36122U 09072B   21009.45298762 -.00000046  00000-0 -87312-5 0  9995
2 36122 100.1120 356.8416 0008179 108.7290 251.4720 13.16358273531971
JUGNU                   
1 37839U 11058B   21008.60877068  .00000305  00000-0  20568-4 0  9991
2 37839  19.9610 118.5986 0018919 129.6163 259.6373 14.12699664477834
SRMSAT                  
1 37841U 11058D   21008.22855413  .00000294  00000-0  16630-4 0  9994
2 37841  19.9703 189.4736 0011873 333.8773 184.3967 14.10682470477072
M-CUBED & EXP-1 PRIME   
1 37855U 11061F   21008.78626038  .00001946  00000-0  10157-3 0  9995
2 37855 101.7258 209.3781 0168729 185.3366 174.6053 15.07057419502124
STRAND-1                
1 39090U 13009E   21009.51865849  .00000029  00000-0  25236-4 0  9995
2 39090  98.4369 215.3465 0009813  37.3968 322.7899 14.35163001412264
SOMP                    
1 39134U 13015E   21008.60174917  .00001921  00000-0  92925-4 0  9990
2 39134  64.8647 332.0043 0013877 219.4285 140.5834 15.21850275426888
BEESAT-3                
1 39135U 13015F   21009.45729065  .00001532  00000-0  82562-4 0  9999
2 39135  64.8675 355.8646 0019294 209.6812 150.3222 15.18810535426889
BEESAT-2                
1 39136U 13015G   21009.12610358  .00001345  00000-0  74625-4 0  9991
2 39136  64.8742   2.6843 0029889 263.8775  95.8945 15.18188521426723
ZACUBE-1 (TSHEPISOSAT)  
1 39417U 13066B   21008.91486377  .00000321  00000-0  46387-4 0  9994
2 39417  97.5784   1.6569 0057888 325.4695  34.2763 14.81404478385454
GOMX-1                  
1 39430U 13066Q   21009.34823084  .00000185  00000-0  42946-4 0  9992
2 39430  97.8067 301.6065 0149347 256.0292 102.4254 14.59519343379835
CUBEBUG-2 (LO-74)       
1 39440U 13066AA  21009.50076349  .00000328  00000-0  52176-4 0  9990
2 39440  97.6557 346.8963 0080792  32.2243 328.3867 14.76136329384174
FUNCUBE-1 (AO-73)       
1 39444U 13066AE  21008.92780816  .00000376  00000-0  52279-4 0  9997
2 39444  97.5706   3.9930 0056784 316.4981  43.1760 14.82287899383807
UWE-3                   
1 39446U 13066AG  21009.20427066  .00000338  00000-0  51132-4 0  9991
2 39446  97.6189 353.6954 0069822 359.8947   0.2239 14.78672154383561
SPROUT                  
1 39770U 14029E   21009.53758790  .00000930  00000-0  10708-3 0  9999
2 39770  97.9069 121.1205 0009242  18.0014 342.1525 14.88117108359706
UNISAT-6                
1 40012U 14033C   21008.66316288  .00000209  00000-0  38068-4 0  9999
2 40012  97.6870 219.3451 0059364  57.7800 302.9145 14.74223041352658
DUCHIFAT-1              
1 40021U 14033M   21009.10682476  .00000657  00000-0  72088-4 0  9991
2 40021  97.9594 307.7716 0012340 335.8102  24.2535 14.91137955356533
QB50P1                  
1 40025U 14033R   21009.05977465  .00000324  00000-0  40165-4 0  9996
2 40025  97.9257 299.4253 0012172 349.8100  10.2869 14.89300279356209
NUDT-PHONESAT           
1 40900U 15049B   21009.48350495  .00003278  00000-0  13297-3 0  9997
2 40900  97.4264  24.7269 0011991 347.5938 116.8258 15.25272037294580
ZDPS 2A                 
1 40901U 15049C   21009.52910390  .00001604  00000-0  79980-4 0  9992
2 40901  97.4629  18.5892 0013950  22.3011  94.7595 15.18913032293841
ZDPS 2B                 
1 40902U 15049D   21009.51122641  .00001708  00000-0  84935-4 0  9997
2 40902  97.4647  15.8541 0013957  19.9210  97.9481 15.18926879293812
XW-2A                   
1 40903U 15049E   21009.47310311  .00002790  00000-0  62646-4 0  9993
2 40903  97.2610  64.3450 0011143 229.2989 254.3573 15.44183542298258
KAITUO 1A               
1 40904U 15049F   21009.48912552  .00000556  00000-0  32382-4 0  9992
2 40904  97.4834  13.4989 0015603  34.4283  83.2594 15.15955504293451
2015-049G               
1 40905U 15049G   21009.53294981  .00000849  00000-0  49210-4 0  9991
2 40905  97.4942  10.6649 0016559  32.7515  82.6639 15.14786543293271
XW-2C                   
1 40906U 15049H   21009.48929999  .00000858  00000-0  47485-4 0  9992
2 40906  97.4826  13.9035 0015490  25.5762  96.4083 15.16416592293479
XW-2D                   
1 40907U 15049J   21009.51415084  .00001022  00000-0  55483-4 0  9993
2 40907  97.4817  13.6752 0014876  21.8937  95.6406 15.16695298293509
LILACSAT-2              
1 40908U 15049K   21009.50699924  .00000327  00000-0  21469-4 0  9994
2 40908  97.4987  11.7371 0016885  34.2249  90.3999 15.14246255293175
XW-2F                   
1 40910U 15049M   21009.53881830  .00001663  00000-0  83754-4 0  9998
2 40910  97.4714  16.5716 0014913  10.5382 114.6323 15.18503518293608
XW-2B                   
1 40911U 15049N   21009.50934427  .00000888  00000-0  48759-4 0  9991
2 40911  97.4815  14.3666 0014706  23.0236  99.4231 15.16615481293393
KAITUO 1B               
1 40912U 15049P   21009.53284212  .00001769  00000-0  82810-4 0  9990
2 40912  97.4471  20.8783 0014267 345.4930 132.4966 15.20970348294034
TIANWANG 1C (TW-1C)     
1 40926U 15051B   21009.44199351  .00118874  00000-0  46058-3 0  9996
2 40926  97.0490  70.1742 0003469  26.6129 102.4677 15.86883477299397
TIANWANG 1A (TW-1A)     
1 40928U 15051D   21009.53713014  .00004107  00000-0  91119-4 0  9998
2 40928  97.0928  38.3082 0010900 145.4544 342.3172 15.44221475297152
LAPAN-A2                
1 40931U 15052B   21008.39097222  .00000855  00000-0  29829-4 0  9997
2 40931   6.0018 313.8861 0013973 301.9299 342.5573 14.76660076285591
E-ST@R-II               
1 41459U 16025D   21009.39614096  .00002789  00000-0  14160-3 0  9998
2 41459  98.1212 136.4545 0161508 238.1281 120.4136 15.07231180258451
AAUSAT 4                
1 41460U 16025E   21009.39766030  .00004383  00000-0  21129-3 0  9991
2 41460  98.1201 139.5838 0149892 224.2978 134.6140 15.09912132258706
NUSAT-1 (FRESCO)        
1 41557U 16033B   21009.43794257  .00002013  00000-0  74517-4 0  9992
2 41557  97.3978 104.3544 0014903  80.5052 342.1597 15.28750361257233
BEESAT-4                
1 41619U 16040W   21009.15855664  .00001817  00000-0  76056-4 0  9999
2 41619  97.2939  69.5850 0011231 166.0514 194.1036 15.24770349240738
